{
  "type": "FeatureCollection",
  "features": [
    {
      "type": "Feature",
      "properties": {
        "norad_id": 32376,
        "name": "COSMO-SKYMED 2",
        "group": "resource",
        "lat": -31.197468571596705,
        "lon": -17.682296859698745,
        "alt_km": 629.2059544132226,
        "timestamp": "2025-12-11T18:59:45.722857+00:00",
        "meta_object_name": "COSMO-SKYMED 2",
        "meta_object_id": "2007-059A",
        "meta_epoch": "2025-12-11T06:42:12.658752",
        "meta_mean_motion": 14.82167079,
        "meta_eccentricity": 0.00015229,
        "meta_inclination": 97.8811,
        "meta_ra_of_asc_node": 166.6251,
        "meta_arg_of_pericenter": 84.8208,
        "meta_mean_anomaly": 275.3179,
        "meta_ephemeris_type": 0,
        "meta_classification_type": "U",
        "meta_norad_cat_id": 32376,
        "meta_element_set_no": 999,
        "meta_rev_at_epoch": 97416,
        "meta_bstar": 0.00018847227,
        "meta_mean_motion_dot": 1.449e-05,
        "meta_mean_motion_ddot": 0,
        "tle_line1": "1 32376U 07059A   25345.27931318  .00001449  00000+0  18847-3 0  9993",
        "tle_line2": "2 32376  97.8811 166.6251 0001522  84.8208 275.3179 14.82167079974160"
      },
      "geometry": {
        "type": "Point",
        "coordinates": [
          -17.682296859698745,
          -31.197468571596705
        ]
      }
    },
    {
      "type": "Feature",
      "properties": {
        "norad_id": 32382,
        "name": "RADARSAT-2",
        "group": "resource",
        "lat": -21.740995990952317,
        "lon": -6.153325599368987,
        "alt_km": 797.3110178431643,
        "timestamp": "2025-12-11T18:59:45.722875+00:00",
        "meta_object_name": "RADARSAT-2",
        "meta_object_id": "2007-061A",
        "meta_epoch": "2025-12-11T07:20:36.815424",
        "meta_mean_motion": 14.29980619,
        "meta_eccentricity": 0.00011109,
        "meta_inclination": 98.58,
        "meta_ra_of_asc_node": 349.9166,
        "meta_arg_of_pericenter": 86.4776,
        "meta_mean_anomaly": 273.6534,
        "meta_ephemeris_type": 0,
        "meta_classification_type": "U",
        "meta_norad_cat_id": 32382,
        "meta_element_set_no": 999,
        "meta_rev_at_epoch": 93910,
        "meta_bstar": -3.9989287e-05,
        "meta_mean_motion_dot": -1.47e-06,
        "meta_mean_motion_ddot": 0,
        "tle_line1": "1 32382U 07061A   25345.30598166 -.00000147  00000+0 -39989-4 0  9994",
        "tle_line2": "2 32382  98.5800 349.9166 0001110  86.4776 273.6534 14.29980619939100"
      },
      "geometry": {
        "type": "Point",
        "coordinates": [
          -6.153325599368987,
          -21.740995990952317
        ]
      }
    },
    {
      "type": "Feature",
      "properties": {
        "norad_id": 32783,
        "name": "CARTOSAT-2A",
        "group": "resource",
        "lat": 1.9347626029321265,
        "lon": 35.37918162841885,
        "alt_km": 627.0615328449558,
        "timestamp": "2025-12-11T18:59:45.722886+00:00",
        "meta_object_name": "CARTOSAT-2A",
        "meta_object_id": "2008-021A",
        "meta_epoch": "2025-12-11T07:37:14.907360",
        "meta_mean_motion": 14.78934343,
        "meta_eccentricity": 0.00120249,
        "meta_inclination": 97.7929,
        "meta_ra_of_asc_node": 35.1851,
        "meta_arg_of_pericenter": 9.3233,
        "meta_mean_anomaly": 350.82,
        "meta_ephemeris_type": 0,
        "meta_classification_type": "U",
        "meta_norad_cat_id": 32783,
        "meta_element_set_no": 999,
        "meta_rev_at_epoch": 95103,
        "meta_bstar": 0.00025211669,
        "meta_mean_motion_dot": 1.811e-05,
        "meta_mean_motion_ddot": 0,
        "tle_line1": "1 32783U 08021A   25345.31753365  .00001811  00000+0  25212-3 0  9991",
        "tle_line2": "2 32783  97.7929  35.1851 0012024   9.3233 350.8200 14.78934343951032"
      },
      "geometry": {
        "type": "Point",
        "coordinates": [
          35.37918162841885,
          1.9347626029321265
        ]
      }
    },
    {
      "type": "Feature",
      "properties": {
        "norad_id": 33320,
        "name": "HUANJING 1A (HJ-1A)",
        "group": "resource",
        "lat": -32.0968259449814,
        "lon": 149.2907145958663,
        "alt_km": 638.9256910916356,
        "timestamp": "2025-12-11T18:59:45.722897+00:00",
        "meta_object_name": "HUANJING 1A (HJ-1A)",
        "meta_object_id": "2008-041A",
        "meta_epoch": "2025-12-11T06:42:36.715104",
        "meta_mean_motion": 14.8338928,
        "meta_eccentricity": 0.00203255,
        "meta_inclination": 97.6547,
        "meta_ra_of_asc_node": 333.6391,
        "meta_arg_of_pericenter": 39.0871,
        "meta_mean_anomaly": 321.1808,
        "meta_ephemeris_type": 0,
        "meta_classification_type": "U",
        "meta_norad_cat_id": 33320,
        "meta_element_set_no": 999,
        "meta_rev_at_epoch": 93054,
        "meta_bstar": 0.00039339924,
        "meta_mean_motion_dot": 3.188e-05,
        "meta_mean_motion_ddot": 0,
        "tle_line1": "1 33320U 08041A   25345.27959161  .00003188  00000+0  39340-3 0  9994",
        "tle_line2": "2 33320  97.6547 333.6391 0020325  39.0871 321.1808 14.83389280930549"
      },
      "geometry": {
        "type": "Point",
        "coordinates": [
          149.2907145958663,
          -32.0968259449814
        ]
      }
    },
    {
      "type": "Feature",
      "properties": {
        "norad_id": 33321,
        "name": "HUANJING 1B (HJ-1B)",
        "group": "resource",
        "lat": 73.46032829341821,
        "lon": -49.044433514142526,
        "alt_km": 586.6728544626276,
        "timestamp": "2025-12-11T18:59:45.722910+00:00",
        "meta_object_name": "HUANJING 1B (HJ-1B)",
        "meta_object_id": "2008-041B",
        "meta_epoch": "2025-12-11T05:42:11.814336",
        "meta_mean_motion": 14.82814688,
        "meta_eccentricity": 0.00382714,
        "meta_inclination": 97.6403,
        "meta_ra_of_asc_node": 337.2996,
        "meta_arg_of_pericenter": 80.3328,
        "meta_mean_anomaly": 280.2206,
        "meta_ephemeris_type": 0,
        "meta_classification_type": "U",
        "meta_norad_cat_id": 33321,
        "meta_element_set_no": 999,
        "meta_rev_at_epoch": 93055,
        "meta_bstar": 0.00023348912,
        "meta_mean_motion_dot": 1.862e-05,
        "meta_mean_motion_ddot": 0,
        "tle_line1": "1 33321U 08041B   25345.23763674  .00001862  00000+0  23349-3 0  9992",
        "tle_line2": "2 33321  97.6403 337.2996 0038271  80.3328 280.2206 14.82814688930559"
      },
      "geometry": {
        "type": "Point",
        "coordinates": [
          -49.044433514142526,
          73.46032829341821
        ]
      }
    },
    {
      "type": "Feature",
      "properties": {
        "norad_id": 33331,
        "name": "GEOEYE 1",
        "group": "resource",
        "lat": 56.18281612431918,
        "lon": -110.60159623504791,
        "alt_km": 674.1147840600879,
        "timestamp": "2025-12-11T18:59:45.722922+00:00",
        "meta_object_name": "GEOEYE 1",
        "meta_object_id": "2008-042A",
        "meta_epoch": "2025-12-11T05:19:17.302656",
        "meta_mean_motion": 14.6480927,
        "meta_eccentricity": 0.00027463,
        "meta_inclination": 98.1254,
        "meta_ra_of_asc_node": 56.5214,
        "meta_arg_of_pericenter": 283.1614,
        "meta_mean_anomaly": 76.9282,
        "meta_ephemeris_type": 0,
        "meta_classification_type": "U",
        "meta_norad_cat_id": 33331,
        "meta_element_set_no": 999,
        "meta_rev_at_epoch": 92263,
        "meta_bstar": 0.00018685944,
        "meta_mean_motion_dot": 9.49e-06,
        "meta_mean_motion_ddot": 0,
        "tle_line1": "1 33331U 08042A   25345.22172804  .00000949  00000+0  18686-3 0  9995",
        "tle_line2": "2 33331  98.1254  56.5214 0002746 283.1614  76.9282 14.64809270922638"
      },
      "geometry": {
        "type": "Point",
        "coordinates": [
          -110.60159623504791,
          56.18281612431918
        ]
      }
    },
    {
      "type": "Feature",
      "properties": {
        "norad_id": 33396,
        "name": "THEOS",
        "group": "resource",
        "lat": 47.131555960784894,
        "lon": -126.72356717996038,
        "alt_km": 820.1721284109626,
        "timestamp": "2025-12-11T18:59:45.722935+00:00",
        "meta_object_name": "THEOS",
        "meta_object_id": "2008-049A",
        "meta_epoch": "2025-12-11T06:32:21.680160",
        "meta_mean_motion": 14.20096163,
        "meta_eccentricity": 0.0001135,
        "meta_inclination": 98.5865,
        "meta_ra_of_asc_node": 43.4049,
        "meta_arg_of_pericenter": 96.3698,
        "meta_mean_anomaly": 263.7608,
        "meta_ephemeris_type": 0,
        "meta_classification_type": "U",
        "meta_norad_cat_id": 33396,
        "meta_element_set_no": 999,
        "meta_rev_at_epoch": 89129,
        "meta_bstar": 4.9123625e-05,
        "meta_mean_motion_dot": 6.2e-07,
        "meta_mean_motion_ddot": 0,
        "tle_line1": "1 33396U 08049A   25345.27247315  .00000062  00000+0  49124-4 0  9996",
        "tle_line2": "2 33396  98.5865  43.4049 0001135  96.3698 263.7608 14.20096163891295"
      },
      "geometry": {
        "type": "Point",
        "coordinates": [
          -126.72356717996038,
          47.131555960784894
        ]
      }
    }
  ]
}